TEN-KOH                 
1 43677U 18084G   23122.37072395  .00002392  00000+0  23684-3 0  9995
2 43677  98.0055 261.4465 0014067 302.0399  57.9453 14.92780894245228
DIWATA-2B               
1 43678U 18084H   23122.69264035  .00002218  00000+0  21754-3 0  9998
2 43678  98.0146 265.7679 0008457 317.8367  42.2211 14.93272810245470
STARS-AO                
1 43679U 18084J   23122.33856430  .00005109  00000+0  45590-3 0  9992
2 43679  98.0158 268.4267 0007222 318.7983  41.2691 14.96403842245576
AUTCUBE 2               
1 43681U 18084K   23122.06415473  .00003810  00000+0  35202-3 0  9999
2 43681  98.0123 266.2235 0007740 315.5452  44.5146 14.95197067245415
METOP-C                 
1 43689U 18087A   23122.79219296  .00000161  00000+0  93583-4 0  9998
2 43689  98.6863 183.0305 0002978 171.2811 188.8419 14.21497419232670
ES'HAIL 2               
1 43700U 18090A   23122.56123252  .00000155  00000+0  00000+0 0  9997
2 43700   0.0158 267.5809 0001439 160.3379  20.1571  1.00274375 16229
FACSAT-1                
1 43721U 18096C   23122.83809473  .00302024  00000+0  15494-2 0  9998
2 43721  97.3091 212.1790 0007525 278.7447 178.2175 15.80417225247377
REAKTOR HELLO WORLD     
1 43743U 18096AA  23122.20268198  .00060039  00000+0  95571-3 0  9998
2 43743  97.3182 208.1137 0008532 349.7721  10.3357 15.53046771247029
ELYSIUM STAR 2 & LFF    
1 43760U 18099C   23122.20064305  .00014483  00000+0  10177-2 0  9994
2 43760  97.5701 188.9513 0008204 252.5593 107.4737 15.05188326240937
2018-099D               
1 43761U 18099D   23122.43030218  .00001960  00000+0  17349-3 0  9991
2 43761  97.5759 185.0982 0013000 281.0141  78.9631 14.97343230240724
AISTECHSAT 2            
1 43768U 18099L   23122.35768759  .00003867  00000+0  33161-3 0  9995
2 43768  97.5706 183.4357 0009654 277.7668  82.2458 14.98049644240387
FOX-1CLIFF (AO-95)      
1 43770U 18099N   23122.45201161  .00005805  00000+0  47867-3 0  9990
2 43770  97.5755 185.2228 0010288 282.3612  77.6460 14.99368321240756
RANGE-A                 
1 43772U 18099Q   23122.17388782  .00007160  00000+0  56585-3 0  9999
2 43772  97.5840 187.5705 0006929 256.9852 103.0599 15.00943093240764
RANGE-B                 
1 43773U 18099R   23122.45581633  .00004056  00000+0  34659-3 0  9990
2 43773  97.5687 183.4517 0010409 271.0948  88.9083 14.98156738240714
2018-099T               
1 43775U 18099T   23122.14343877  .00002463  00000+0  21409-3 0  9993
2 43775  97.5771 184.6421 0012179 279.5338  80.4508 14.97827179240676
MOVE-II                 
1 43780U 18099Y   23122.70909465  .00009778  00000+0  73265-3 0  9995
2 43780  97.5763 187.7203 0007000 312.1224  47.9406 15.02877550240906
SNUSAT-2                
1 43782U 18099AA  23122.74772538  .00003989  00000+0  33092-3 0  9992
2 43782  97.5777 186.0358 0010449 271.3076  88.6950 14.99311319240826
SNUGLITE                
1 43784U 18099AC  23122.44902499  .00005739  00000+0  46754-3 0  9996
2 43784  97.5713 185.3770 0010188 270.7731  89.2325 14.99835504240818
ITASAT 1                
1 43786U 18099AE  23122.17812384  .00004619  00000+0  38437-3 0  9996
2 43786  97.5775 185.9931 0012489 273.4223  86.5572 14.99102165240752
KAZSCISAT-1             
1 43787U 18099AF  23122.12378540  .00009477  00000+0  71726-3 0  9998
2 43787  97.5590 185.6461 0007715 278.7656  81.2695 15.02499851240852
EAGLET-I                
1 43790U 18099AJ  23122.80873059  .00003265  00000+0  27541-3 0  9997
2 43790  97.5808 187.1085 0010540 281.9467  78.0574 14.98791667240587
ESEO                    
1 43792U 18099AL  23122.72463081  .00002855  00000+0  24987-3 0  9995
2 43792  97.5733 185.6271 0010748 278.2432  81.7571 14.97448805240587
CSIM-FD                 
1 43793U 18099AM  23122.41854075  .00009264  00000+0  68540-3 0  9993
2 43793  97.5783 188.6975 0014671 281.5666  78.3912 15.03307250240703
ASTROCAST 0.1           
1 43798U 18099AS  23122.24731039  .00005683  00000+0  43893-3 0  9998
2 43798  97.5919 187.9250 0011933 252.3960 107.5962 15.01877566240876
JY1SAT (JO-97)          
1 43803U 18099AX  23122.17089026  .00005714  00000+0  45994-3 0  9998
2 43803  97.5713 185.9404 0011719 259.4607 100.5296 15.00293157240793
SUOMI-100               
1 43804U 18099AY  23122.42421390  .00005125  00000+0  41582-3 0  9996
2 43804  97.5723 186.0227 0014965 271.1721  88.7788 15.00003306240837
AL-FARABI 2             
1 43805U 18099AZ  23122.41619838  .00006672  00000+0  51943-3 0  9992
2 43805  97.5691 186.9920 0009335 244.4014 115.6212 15.01528888240889
CENTAURI-1              
1 43809U 18099BD  23122.16973001  .00003908  00000+0  32677-3 0  9995
2 43809  97.5745 185.8800 0013409 275.6089  84.3605 14.98995792240473
CHOMPTT                 
1 43855U 18104G   23122.21316447  .00026623  00000+0  70011-3 0  9997
2 43855  85.0350 197.3738 0014925 131.1973 229.0568 15.38325860243509
UWE-4                   
1 43880U 18111E   23122.25425788  .00006459  00000+0  50047-3 0  9998
2 43880  97.6414  28.1664 0015350 337.4080  22.6467 15.01667975237479
ZACUBE-2                
1 43907U 18111AH  23122.84413491  .00026158  00000+0  69089-3 0  9995
2 43907  97.1461   3.5800 0016513  25.8970  41.4054 15.38281745242174
MICRODRAGON             
1 43935U 19003D   23122.52434712  .00015643  00000+0  49171-3 0  9998
2 43935  97.1076 143.8240 0016646 115.4701 244.8267 15.32922831238439
M6P                     
1 44109U 19018AF  23122.20622890  .00133298  00000+0  10537-2 0  9999
2 44109  97.3683 218.6156 0020703  43.3486 316.9401 15.70673739228795
FORMOSAT 7-4            
1 44350U 19036M   23121.74140478  .00007990  00000+0  41264-3 0  9993
2 44350  24.0009 349.1761 0005061 299.7917  60.2084 15.13642413211666
METEOR-M2 2             
1 44387U 19038A   23122.77374519  .00000104  00000+0  65072-4 0  9998
2 44387  98.7710  86.7775 0002410  75.6996 284.4448 14.23777524198845
VDNH-80                 
1 44392U 19038G   23122.81352076  .00022764  00000+0  84309-3 0  9992
2 44392  97.6714 102.6949 0018380 100.0453 345.7381 15.27502845211387
D-STAR ONE (LIGHTSAT)   
1 44393U 19038H   23122.50570019  .00024417  00000+0  88907-3 0  9993
2 44393  97.6715 102.4040 0018545 102.6790 257.6524 15.28044869211539
AMGU-1 (AMURSAT)        
1 44394U 19038J   23122.90782191  .00027177  00000+0  94618-3 0  9996
2 44394  97.6714 103.0063 0018226  99.6118 260.7183 15.29495153211618
DOT-1                   
1 44399U 19038P   23122.46239233  .00013746  00000+0  60389-3 0  9991
2 44399  97.6799  99.6999 0022222 113.1155 247.2425 15.21814733211326
SOKRAT                  
1 44404U 19038U   23122.50217235  .00027266  00000+0  96353-3 0  9993
2 44404  97.6703 102.1179 0018400 103.9683 256.3604 15.29005342211522
LUCKY-7                 
1 44406U 19038W   23122.46876150  .00015426  00000+0  65808-3 0  9993
2 44406  97.6780 100.3237 0021953 105.0699 255.2968 15.22790882211367
D-STAR ONE (EXOCONNECT) 
1 44410U 19038AA  23122.67463423  .00064372  00000+0  15044-2 0  9996
2 44410  97.6600 105.6658 0015891  94.9144 265.3917 15.41815941211803
NARSSCUBE-2             
1 44415U 19022E   23122.22340332  .00029817  00000+0  60276-3 0  9991
2 44415  51.6381   5.2213 0011021 134.1696 226.0198 15.46154089209194
DUCHIFAT-3              
1 44854U 19089C   23122.80279497  .00008429  00000+0  57842-3 0  9999
2 44854  36.9647   2.3798 0010811 307.3372 133.0154 15.05535709185996
OPS-SAT                 
1 44878U 19092F   23122.44990472  .00028997  00000+0  93051-3 0  9996
2 44878  97.4772 310.6811 0008240 296.8034  63.2364 15.32245401186786
FLORIPASAT-1            
1 44885U 19093G   23122.81796720  .00004274  00000+0  50117-3 0  9994
2 44885  97.8681 204.4938 0012841 224.5111 135.5054 14.85447165182214
BY70-2                  
1 45857U 20042B   23122.33184597  .00019927  00000+0  21307-2 0  9999
2 45857  97.9256 202.1334 0011371 154.0636 206.1110 14.88733779152716
SALSAT                  
1 46495U 20068K   23122.58751471  .00005047  00000+0  33779-3 0  9999
2 46495  97.7672  70.1322 0013740 276.0750  83.8911 15.07320147142204
NETSAT-4                
1 46504U 20068U   23122.57260362  .00007219  00000+0  48505-3 0  9999
2 46504  97.7592  67.9793 0010547 333.6672  26.4030 15.07048460142038
NETSAT-3                
1 46505U 20068V   23122.60114615  .00006057  00000+0  40942-3 0  9999
2 46505  97.7572  67.8541 0010193 344.3105  15.7798 15.06897565142044
NETSAT-1                
1 46506U 20068W   23122.56968744  .00006152  00000+0  41850-3 0  9990
2 46506  97.7578  67.7157 0008591 356.0625   4.0541 15.06667861142039
NETSAT-2                
1 46507U 20068X   23122.56847843  .00007133  00000+0  48053-3 0  9999
2 46507  97.7583  67.7332 0007996   3.2871 356.8402 15.06973623141986
UVSQ-SAT                
1 47438U 21006AB  23122.38979769  .00015557  00000+0  66292-3 0  9993
2 47438  97.3889 180.1913 0009084 235.2876 124.7506 15.23007083125674
SOMP2B                  
1 47445U 21006AJ  23122.15975808  .00015098  00000+0  65667-3 0  9991
2 47445  97.3859 179.2862 0008683 241.6495 118.3866 15.22319569125619
DIY-1 (ARDUIQUBE)       
1 47963U 21022AH  23122.45831404  .00135871  00000+0  27367-2 0  9996
2 47963  97.5021  29.0120 0014107 102.4675 257.8153 15.45967612115494
CAS-5A                  
1 54684U 22167C   23122.74415529  .00012955  00000+0  73539-3 0  9993
2 54684  97.5550 260.6864 0014946 130.5067 344.4453 15.12974641 21806
